H1 CPF  1  DGF 2022 08 07 11  7191 larets     NONE      
H2   304206 5557    27944 2022 08 07 00 00 00 2022 08 14 00 00 00    30 1 1  0 0 0
H5  0.0650
H9
10 0 59800  68400.000000  0        340941.615       2163234.982       6697592.021
10 0 59800  68430.000000  0        417957.759       1956859.419       6756129.556
10 0 59800  68460.000000  0        493641.400       1748162.189       6807754.411
10 0 59800  68490.000000  0        567905.978       1537361.229       6852413.566
10 0 59800  68520.000000  0        640667.326       1324676.987       6890061.098
10 0 59800  68550.000000  0        711843.765       1110332.200       6920658.232
10 0 59800  68580.000000  0        781356.199        894551.656       6944173.376
10 0 59800  68610.000000  0        849128.202        677561.957       6960582.157
10 0 59800  68640.000000  0        915086.099        459591.285       6969867.442
10 0 59800  68670.000000  0        979159.054        240869.157       6972019.368
10 0 59800  68700.000000  0       1041279.141         21626.183       6967035.345
10 0 59800  68730.000000  0       1101381.417       -197906.181       6954920.072
10 0 59800  68760.000000  0       1159403.994       -417495.883       6935685.523
10 0 59800  68790.000000  0       1215288.101       -636910.525       6909350.944
10 0 59800  68820.000000  0       1268978.150       -855917.604       6875942.826
10 0 59800  68850.000000  0       1320421.785      -1074284.760       6835494.886
10 0 59800  68880.000000  0       1369569.941      -1291780.028       6788048.038
10 0 59800  68910.000000  0       1416376.887      -1508172.085       6733650.356
10 0 59800  68940.000000  0       1460800.272      -1723230.504       6672357.029
10 0 59800  68970.000000  0       1502801.166      -1936725.999       6604230.304
10 0 59800  69000.000000  0       1542344.092      -2148430.678       6529339.433
10 0 59800  69030.000000  0       1579397.057      -2358118.287       6447760.598
10 0 59800  69060.000000  0       1613931.579      -2565564.460       6359576.842
10 0 59800  69090.000000  0       1645922.709      -2770546.961       6264877.990
10 0 59800  69120.000000  0       1675349.041      -2972845.930       6163760.554
10 0 59800  69150.000000  0       1702192.731      -3172244.126       6056327.645
10 0 59800  69180.000000  0       1726439.498      -3368527.161       5942688.861
10 0 59800  69210.000000  0       1748078.634      -3561483.739       5822960.187
10 0 59800  69240.000000  0       1767102.993      -3750905.887       5697263.871
10 0 59800  69270.000000  0       1783508.994      -3936589.183       5565728.308
10 0 59800  69300.000000  0       1797296.603      -4118332.982       5428487.910
10 0 59800  69330.000000  0       1808469.323      -4295940.644       5285682.975
10 0 59800  69360.000000  0       1817034.174      -4469219.748       5137459.547
10 0 59800  69390.000000  0       1823001.669      -4637982.315       4983969.268
10 0 59800  69420.000000  0       1826385.784      -4802045.019       4825369.230
10 0 59800  69450.000000  0       1827203.929      -4961229.400       4661821.812
10 0 59800  69480.000000  0       1825476.907      -5115362.065       4493494.516
10 0 59800  69510.000000  0       1821228.875      -5264274.892       4320559.790
10 0 59800  69540.000000  0       1814487.297      -5407805.217       4143194.848
10 0 59800  69570.000000  0       1805282.888      -5545796.025       3961581.488
10 0 59800  69600.000000  0       1793649.562      -5678096.121       3775905.899
10 0 59800  69630.000000  0       1779624.369      -5804560.309       3586358.469
10 0 59800  69660.000000  0       1763247.430      -5925049.556       3393133.588
10 0 59800  69690.000000  0       1744561.873      -6039431.153       3196429.442
10 0 59800  69720.000000  0       1723613.759      -6147578.867       2996447.810
10 0 59800  69750.000000  0       1700452.007      -6249373.086       2793393.849
10 0 59800  69780.000000  0       1675128.318      -6344700.962       2587475.881
10 0 59800  69810.000000  0       1647697.090      -6433456.539       2378905.176
10 0 59800  69840.000000  0       1618215.336      -6515540.878       2167895.726
10 0 59800  69870.000000  0       1586742.586      -6590862.176       1954664.024
10 0 59800  69900.000000  0       1553340.802      -6659335.874       1739428.828
10 0 59800  69930.000000  0       1518074.274      -6720884.754       1522410.934
10 0 59800  69960.000000  0       1481009.529      -6775439.030       1303832.933
10 0 59800  69990.000000  0       1442215.222      -6822936.426       1083918.984
10 0 59800  70020.000000  0       1401762.039      -6863322.248        862894.571
10 0 59800  70050.000000  0       1359722.583      -6896549.458        640986.270
10 0 59800  70080.000000  0       1316171.267      -6922578.731        418421.502
10 0 59800  70110.000000  0       1271184.198      -6941378.500        195428.282
10 0 59800  70140.000000  0       1224839.059      -6952924.986        -27765.021
10 0 59800  70170.000000  0       1177214.997      -6957202.225       -250929.933
10 0 59800  70200.000000  0       1128392.503      -6954202.082       -473838.111
10 0 59800  70230.000000  0       1078453.293      -6943924.255       -696261.594
10 0 59800  70260.000000  0       1027480.189      -6926376.273       -917973.035
10 0 59800  70290.000000  0        975556.995      -6901573.477      -1138745.947
10 0 59800  70320.000000  0        922768.376      -6869539.006      -1358354.931
10 0 59800  70350.000000  0        869199.732      -6830303.762      -1576575.920
10 0 59800  70380.000000  0        814937.081      -6783906.372      -1793186.405
10 0 59800  70410.000000  0        760066.931      -6730393.139      -2007965.672
10 0 59800  70440.000000  0        704676.158      -6669817.987      -2220695.027
10 0 59800  70470.000000  0        648851.885      -6602242.396      -2431158.023
10 0 59800  70500.000000  0        592681.358      -6527735.329      -2639140.682
10 0 59800  70530.000000  0        536251.822      -6446373.149      -2844431.714
10 0 59800  70560.000000  0        479650.401      -6358239.530      -3046822.734
10 0 59800  70590.000000  0        422963.975      -6263425.357      -3246108.473
10 0 59800  70620.000000  0        366279.060      -6162028.623      -3442086.986
10 0 59800  70650.000000  0        309681.688      -6054154.309      -3634559.856
10 0 59800  70680.000000  0        253257.288      -5939914.264      -3823332.392
10 0 59800  70710.000000  0        197090.569      -5819427.076      -4008213.819
10 0 59800  70740.000000  0        141265.406      -5692817.931      -4189017.470
10 0 59800  70770.000000  0         85864.727      -5560218.475      -4365560.962
10 0 59800  70800.000000  0         30970.397      -5421766.665      -4537666.379
10 0 59800  70830.000000  0        -23336.884      -5277606.612      -4705160.435
10 0 59800  70860.000000  0        -76977.693      -5127888.423      -4867874.651
10 0 59800  70890.000000  0       -129873.989      -4972768.036      -5025645.509
10 0 59800  70920.000000  0       -181949.213      -4812407.041      -5178314.614
10 0 59800  70950.000000  0       -233128.391      -4646972.509      -5325728.835
10 0 59800  70980.000000  0       -283338.230      -4476636.805      -5467740.459
10 0 59800  71010.000000  0       -332507.213      -4301577.399      -5604207.318
10 0 59800  71040.000000  0       -380565.689      -4121976.678      -5734992.926
10 0 59800  71070.000000  0       -427445.963      -3938021.744      -5859966.604
10 0 59800  71100.000000  0       -473082.379      -3749904.221      -5979003.595
10 0 59800  71130.000000  0       -517411.407      -3557820.044      -6091985.181
10 0 59800  71160.000000  0       -560371.719      -3361969.258      -6198798.789
10 0 59800  71190.000000  0       -601904.265      -3162555.799      -6299338.092
10 0 59800  71220.000000  0       -641952.350      -2959787.283      -6393503.102
10 0 59800  71250.000000  0       -680461.699      -2753874.791      -6481200.258
10 0 59800  71280.000000  0       -717380.525      -2545032.645      -6562342.506
10 0 59800  71310.000000  0       -752659.591      -2333478.187      -6636849.377
10 0 59800  71340.000000  0       -786252.270      -2119431.559      -6704647.053
10 0 59800  71370.000000  0       -818114.600      -1903115.472      -6765668.434
10 0 59800  71400.000000  0       -848205.336      -1684754.984      -6819853.193
10 0 59800  71430.000000  0       -876485.999      -1464577.262      -6867147.832
10 0 59800  71460.000000  0       -902920.922      -1242811.357      -6907505.723
10 0 59800  71490.000000  0       -927477.288      -1019687.964      -6940887.151
10 0 59800  71520.000000  0       -950125.169       -795439.190      -6967259.343
10 0 59800  71550.000000  0       -970837.559       -570298.317      -6986596.496
10 0 59800  71580.000000  0       -989590.403       -344499.568      -6998879.789
10 0 59800  71610.000000  0      -1006362.621       -118277.873      -7004097.405
10 0 59800  71640.000000  0      -1021136.134        108131.369      -7002244.532
10 0 59800  71670.000000  0      -1033895.880        334492.520      -6993323.375
10 0 59800  71700.000000  0      -1044629.828        560569.947      -6977343.149
10 0 59800  71730.000000  0      -1053328.991        786128.261      -6954320.075
10 0 59800  71760.000000  0      -1059987.429       1010932.553      -6924277.355
10 0 59800  71790.000000  0      -1064602.258       1234748.632      -6887245.154
10 0 59800  71820.000000  0      -1067173.642       1457343.256      -6843260.571
10 0 59800  71850.000000  0      -1067704.795       1678484.366      -6792367.606
10 0 59800  71880.000000  0      -1066201.972       1897941.326      -6734617.124
10 0 59800  71910.000000  0      -1062674.450       2115485.153      -6670066.813
10 0 59800  71940.000000  0      -1057134.520       2330888.753      -6598781.129
10 0 59800  71970.000000  0      -1049597.460       2543927.152      -6520831.246
99
